#dP2021  1 17  0  0  0.00000000     289 ORBIT ITRF  BHN ESOC                    
## 2141      0.00000000   300.00000000 59231 0.0000000000000                    
+  109   G13G28G21G22G07G05G20G31G17G15G16G29G12G19G02G25G01                    
+        G30G24G27G06G09G03G32G26G08G10G04G18G23G14R09R11R20                    
+        R19R13R01R22R16R08R03R07R02R17R14R18R21R05R15R12R04                    
+        R24E11E12E19E18E14E26E24E30E08E09E01E02E07E03E04E05                    
+        E21E25E27E31E36E13E15E33C11C12C14C19C20C27C28C22C21                    
+        C29C30C23C24C26C25C32C33C35C34C36C37C06C07C08C09C10                    
+        C13C16C38C40J01J02J03  0  0  0  0  0  0  0  0  0  0                    
++         5  4  5  5  4  4  4  4  5  5  4  5  5  5  5  4  5                    
++         4  4  5  4  5  4  5  4  5  5  4  5  5  4  4  4  7                    
++         6  5  7  6  5  5  5  5  5  5  5  6  5  5  5  4  5                    
++         5  5  5  5  5  5  4  4  5  4  5  4  5  5  5  5  5                    
++         4  5  4  4  5  5  5  5  6  6  6  5  5  5  5  6  6                    
++         5  5  5  6  5  5  6  6  5  6  5  5  6  5  7  6  6                    
++         7  6  5  7  7  6  6  0  0  0  0  0  0  0  0  0  0                    
%c M  cc GPS ccc cccc cccc cccc cccc ccccc ccccc ccccc ccccc                    
%c cc cc ccc ccc cccc cccc cccc cccc ccccc ccccc ccccc ccccc                    
%f  0.0000000  0.000000000  0.00000000000  0.000000000000000                    
%f  0.0000000  0.000000000  0.00000000000  0.000000000000000                    
%i    0    0    0    0      0      0      0      0         0                    
%i    0    0    0    0      0      0      0      0         0                    
/* CCCCCCCCCCCCCCCCCCCCCCCCCCCCCCCCCCCCCCCCCCCCCCCCCCCCCCCCCCCCCCCCCCCCCCCCCCCCC
/* CCCCCCCCCCCCCCCCCCCCCCCCCCCCCCCCCCCCCCCCCCCCCCCCCCCCCCCCCCCCCCCCCCCCCCCCCCCCC
/* CCCCCCCCCCCCCCCCCCCCCCCCCCCCCCCCCCCCCCCCCCCCCCCCCCCCCCCCCCCCCCCCCCCCCCCCCCCCC
/* PCV:IGS        OL/AL:EOT11A   NONE     YN ORB:CoN CLK:CoN                    
*  2021  1 17 16 45  0.00000000                                                 
PG13   5494.978733  14214.292240 -21896.782488     86.947276                    
PG28 -12421.728982  21364.616664  -9407.388214    628.422509                    
PG21 -20828.715157 -16633.519086  -1872.364952     87.636478                    
PG22 -11786.325188 -16333.685609  17589.869403   -696.522693                    
PG07 -20301.263798  -1375.758388 -16989.992220     25.155126                    
PG05   4396.903422  23846.802350 -10776.300013    -31.237014                    
PG20  14796.420305  -9865.641448 -19707.631961    525.125116                    
PG31   2635.015156 -16733.630151  20264.413685    -94.469906                    
PG17 -18767.425874  14374.392759  12527.130155    381.444185                    
PG15  17892.233747   6843.711626 -18896.079054   -175.683267                    
PG16   -839.253367 -24246.031783 -10469.407509   -266.473280                    
PG29  25795.456068  -3969.796418   5010.648586   -277.579754                    
PG12  11150.760628  12480.297498  20418.096196     11.652726                    
PG19 -12669.963292  15197.238057  17394.017499    -50.668893                    
PG02   9338.991307  19985.218251  15442.147209   -567.014958                    
PG25  15431.692114  -3007.163741  21115.237148     61.695315                    
PG01 -22038.206242 -14095.492773   5298.011761    778.556594                    
PG30 -12801.499231   9498.347984 -21218.785274   -370.416203                    
PG24  21756.541025  15599.717983    241.412848      3.567389                    
PG27  -2782.201169 -14805.637073 -22002.572878    -57.929273                    
PG06  -4324.966837  15078.619385  21489.560664     -4.518768                    
PG09 -25384.248489   6548.517652   4272.065636   -313.725931                    
PG03 -13593.896208  -7728.817562  21402.236798    -58.753521                    
PG32  17349.505349 -15810.171114  12357.487921     14.775463                    
PG26   4418.366690 -26007.871355   1334.451527     31.332832                    
PG08 -16088.571708  -8207.166174 -19566.327335     -6.952532                    
PG10  11652.760740 -20618.683678 -11641.666995    -41.274927                    
PG04 -21873.278883  -3593.881165  14671.194379   -173.447239                    
PG18  18518.419808  -1263.976751 -19023.880897    341.907622                    
PG23  14960.922367 -11072.941552 -18957.497340    116.407626                    
PG14 -13505.464679  18824.987916 -12992.664973     86.847199                    
PR09 -13275.270931  -7548.436518 -20437.094627     19.083888                    
PR11   2732.282922  22926.939155 -10827.629535      4.433283                    
PR20 -24861.973594  -5804.199854    238.310200   -431.361407                    
PR19 -14191.380786 -11489.177633 -17803.410224   -128.304332                    
PR13  13109.985619   7992.953135  20351.578773    -49.471828                    
PR01   2182.855367  13486.598047 -21541.660837     73.609194                    
PR22  -1404.983657  10338.777130  23267.637941    -93.012551                    
PR16 -11831.935964 -21069.099220  -7984.056007    -10.324485                    
PR08  -9869.759513  20014.229742 -12328.345775    -56.910609                    
PR03  18130.733008 -17313.789719  -4514.715747     29.309400                    
PR07 -18076.782756  17593.341672   3987.949692    -42.209220                    
PR02  16199.239239  -4627.161255 -19092.058677    463.238212                    
PR17  18835.602434  -3909.762728 -16755.999304    392.065452                    
PR14   7329.217899 -11048.546218  21800.822456     59.940799                    
PR18   2473.663996 -10160.322804 -23243.918429     63.464706                    
PR21 -17930.715738   4361.883670  17604.921086   -181.078829                    
PR05  -3900.628824 -11451.545424  22459.259018     64.895993                    
PR15  -2514.707484 -23110.424446  10508.079255    105.832192                    
PR12  11053.381786  21873.542614   7148.237694    197.425168                    
PR04   9865.774346 -19969.040418  12446.944287     70.362596                    
PR24  24967.503491   5174.356979   -901.777436     28.124978                    
PE11  17747.043805  19202.356867  13862.151669   6455.867462                    
PE12  -2776.638461  16537.202957  24399.113149   5402.051405                    
PE19 -26014.464891  13662.279901   3599.180857    180.778077                    
PE18 -18595.116874 -12792.521236 -21058.002774  -1418.676188                    
PE14  23153.808728   2820.565666  11345.960802  -1298.024804                    
PE26 -27327.636986 -10208.122632   5016.430985   2254.413274                    
PE24   8229.264972  26385.108753  10627.064275   -694.626573                    
PE30   4415.117375 -28081.137441   8204.245361   3255.319277                    
PE08  12387.431480 -21485.191851  16161.744481   6060.636883                    
PE09   7901.308636  15064.288654 -24226.163551   5795.960163                    
PE01 -14247.487259  13647.464651 -22070.269358  -1026.767456                    
PE02  14215.000907 -13727.914723  22027.956410    191.728906                    
PE07  -7731.481986 -15325.941580  24114.552107   -488.911013                    
PE03  25434.621811 -15086.887556  -1414.820283   -388.386630                    
PE04 -12721.201004  21495.425353 -15887.096960   -690.793944                    
PE05  23397.308947    272.539289 -18132.616430   -312.128857                    
PE21 -16120.391090  -8206.950569 -23429.069148   -643.375968                    
PE25  16094.453762   8428.674738  23375.917320   -524.522984                    
PE27  -8694.216863 -25975.629820 -11194.861397     49.153831                    
PE31  -3785.597144  28379.443300  -7529.309412   -477.446002                    
PE36  27303.339819  10570.433721  -4332.080626    452.979574                    
PE13 -17528.278737 -19162.932902 -14194.157157    410.428976                    
PE15   2597.905639 -16501.313861 -24422.011037    833.814742                    
PE33 -21173.245580   4141.275044  20281.239412   -464.941672                    
PC11  26196.868785   5987.399869   7675.256523   -892.756376                    
PC12  12137.237537  14045.319992  20885.631877    735.932394                    
PC14  15834.805033   4106.069566 -22591.843584    -75.473657                    
PC19 -19174.238573   6217.320644  19315.774103    694.303578                    
PC20 -10751.597455 -12474.421566  22543.433919   -909.722495                    
PC27  -1126.378578 -15880.143042 -22932.820895    467.930418                    
PC28  18998.593666 -11222.633257 -17079.612890   -120.660666                    
PC22 -16735.089091  21806.158219   4745.606055   -847.861596                    
PC21  -4530.875412  24555.221865 -12431.877512   -797.061109                    
PC29 -27858.693078   1085.494932   1259.302538    339.803892                    
PC30 -20531.838675 -10665.629502 -15617.828217    432.439398                    
PC23   9568.941228 -14754.452124  21664.595356   -880.821107                    
PC24  16847.391867  21349.409662   6320.172811   -743.487287                    
PC26   6379.118397  25259.567910 -10062.138896    961.551434                    
PC25  18825.272924   3617.834104  20280.812795   -900.777307                    
PC32   4344.648952 -24610.307312  12432.971647   -884.284897                    
PC33  19146.200327  -6249.889464 -19318.316021   -919.543506                    
PC35 -18866.854465  11797.392652  16863.376700   -461.300969                    
PC34  20985.460487  10431.943701  15129.372923   -761.063548                    
PC36 -18792.828768  -4375.298106 -20137.552007   -774.990935                    
PC37  -5132.918158 -25215.088137  10780.044964   -860.756018                    
PC06 -21287.819498  23150.354523 -27895.940146     12.997294                    
PC07 -15501.658919  38659.273258  -4103.174917   -236.367791                    
PC08  -4262.947718  25799.947811  33287.777253   -906.098805                    
PC09  -3276.660695  24597.042927 -33852.316933    796.932386                    
PC10  -6427.479033  40847.430062   7139.236610   -102.469650                    
PC13   8359.600975  33798.197352  24094.751999    101.867292                    
PC16 -19615.566650  23393.451977 -29098.817559   -663.076245                    
PC38  -4285.919640  28019.168892  31278.714998    124.412245                    
PC40 -14587.887139  39337.103026   3358.085666    122.150394                    
PJ01 -34244.571410  24377.336500   8149.293293   -336.831128                    
PJ02 -20156.590731  26445.770534 -21399.701307      0.826805                    
PJ03 -28663.320567  25640.503027  22260.121460     -0.145412                    
EOF                                                                             
